[{"OBJECT_NAME":"STARLINK-3194","OBJECT_ID":"2021-115AL","EPOCH":"2026-03-09T10:18:27.803808","MEAN_MOTION":15.08835621,"ECCENTRICITY":0.00016346,"INCLINATION":53.2166,"RA_OF_ASC_NODE":140.2941,"ARG_OF_PERICENTER":81.7139,"MEAN_ANOMALY":278.4039,"EPHEMERIS_TYPE":0,"CLASSIFICATION_TYPE":"U","NORAD_CAT_ID":49758,"ELEMENT_SET_NO":999,"REV_AT_EPOCH":23563,"BSTAR":-0.00016993304,"MEAN_MOTION_DOT":-2.991e-5,"MEAN_MOTION_DDOT":0},{"OBJECT_NAME":"CZ-6A DEB","OBJECT_ID":"2024-140JQ","EPOCH":"2026-03-09T16:05:49.477056","MEAN_MOTION":15.15394204,"ECCENTRICITY":0.00800164,"INCLINATION":89.0638,"RA_OF_ASC_NODE":284.0631,"ARG_OF_PERICENTER":105.771,"MEAN_ANOMALY":255.2376,"EPHEMERIS_TYPE":0,"CLASSIFICATION_TYPE":"U","NORAD_CAT_ID":60861,"ELEMENT_SET_NO":999,"REV_AT_EPOCH":8511,"BSTAR":0.0025246282,"MEAN_MOTION_DOT":0.00051962,"MEAN_MOTION_DDOT":0}]
